XINGWANG2_L_00013047-25
1 11680U 25679UK  26075.69965278  .00000000  00000+0  00000-0 0  9996
2 11680  50.0000 345.0000 0000000   0.0000 278.3333 13.30467610    16
XINGWANG2_L_00013047-26
1 11681U 22703ND  26075.69965278  .00000000  00000+0  00000-0 0  9992
2 11681  50.0000 345.0000 0000000   0.0000 288.3333 13.30467610    18
XINGWANG2_L_00013047-27
1 11682U 26160XP  26075.69965278  .00000000  00000+0  00000-0 0  9994
2 11682  50.0000 345.0000 0000000   0.0000 298.3333 13.30467610    10
XINGWANG2_L_00013047-28
1 11683U 25912MG  26075.69965278  .00000000  00000+0  00000-0 0  9999
2 11683  50.0000 345.0000 0000000   0.0000 308.3333 13.30467610    13
XINGWANG2_L_00013047-29
1 11684U 23599GG  26075.69965278  .00000000  00000+0  00000-0 0  9999
2 11684  50.0000 345.0000 0000000   0.0000 318.3333 13.30467610    15
XINGWANG2_L_00013047-30
1 11685U 24571NZ  26075.69965278  .00000000  00000+0  00000-0 0  9991
2 11685  50.0000 345.0000 0000000   0.0000 328.3333 13.30467610    17
XINGWANG2_L_00013047-31
1 11686U 24634YT  26075.69965278  .00000000  00000+0  00000-0 0  9992
2 11686  50.0000 345.0000 0000000   0.0000 338.3333 13.30467610    19
XINGWANG2_L_00013047-32
1 11687U 25186VN  26075.69965278  .00000000  00000+0  00000-0 0  9996
2 11687  50.0000 345.0000 0000000   0.0000 348.3333 13.30467610    11
XINGWANG2_L_00013047-33
1 11688U 25737TR  26075.69965278  .00000000  00000+0  00000-0 0  9999
2 11688  50.0000 345.0000 0000000   0.0000 358.3333 13.30467610    13
XINGWANG2_L_00013047-34
1 11689U 25826XT  26075.69965278  .00000000  00000+0  00000-0 0  9999
2 11689  50.0000 345.0000 0000000   0.0000   8.3333 13.30467610    16
XINGWANG2_L_00013047-35
1 11690U 25483ZW  26075.69965278  .00000000  00000+0  00000-0 0  9990
2 11690  50.0000 345.0000 0000000   0.0000  18.3333 13.30467610    19
XINGWANG2_L_00013047-36
1 11691U 22379OU  26075.69965278  .00000000  00000+0  00000-0 0  9992
2 11691  50.0000 345.0000 0000000   0.0000  28.3333 13.30467610    11
XINGWANG2_L_00013048-01
1 11692U 23928JR  26075.69965278  .00000000  00000+0  00000-0 0  9994
2 11692  50.0000 352.5000 0000000   0.0000  39.1667 13.30467610    15
XINGWANG2_L_00013048-02
1 11693U 24155LE  26075.69965278  .00000000  00000+0  00000-0 0  9998
2 11693  50.0000 352.5000 0000000   0.0000  49.1667 13.30467610    17
XINGWANG2_L_00013048-03
1 11694U 25420ML  26075.69965278  .00000000  00000+0  00000-0 0  9995
2 11694  50.0000 352.5000 0000000   0.0000  59.1667 13.30467610    19
XINGWANG2_L_00013048-04
1 11695U 22980QJ  26075.69965278  .00000000  00000+0  00000-0 0  9994
2 11695  50.0000 352.5000 0000000   0.0000  69.1667 13.30467610    11
XINGWANG2_L_00013048-05
1 11696U 24009JM  26075.69965278  .00000000  00000+0  00000-0 0  9999
2 11696  50.0000 352.5000 0000000   0.0000  79.1667 13.30467610    13
XINGWANG2_L_00013048-06
1 11697U 24823WB  26075.69965278  .00000000  00000+0  00000-0 0  9994
2 11697  50.0000 352.5000 0000000   0.0000  89.1667 13.30467610    15
XINGWANG2_L_00013048-07
1 11698U 26810DB  26075.69965278  .00000000  00000+0  00000-0 0  9993
2 11698  50.0000 352.5000 0000000   0.0000  99.1667 13.30467610    17
XINGWANG2_L_00013048-08
1 11699U 23385QU  26075.69965278  .00000000  00000+0  00000-0 0  9998
2 11699  50.0000 352.5000 0000000   0.0000 109.1667 13.30467610    10
XINGWANG2_L_00013048-09
1 11700U 25556LO  26075.69965278  .00000000  00000+0  00000-0 0  9993
2 11700  50.0000 352.5000 0000000   0.0000 119.1667 13.30467610    14
XINGWANG2_L_00013048-10
1 11701U 23671SI  26075.69965278  .00000000  00000+0  00000-0 0  9990
2 11701  50.0000 352.5000 0000000   0.0000 129.1667 13.30467610    16
XINGWANG2_L_00013048-11
1 11702U 26535LG  26075.69965278  .00000000  00000+0  00000-0 0  9993
2 11702  50.0000 352.5000 0000000   0.0000 139.1667 13.30467610    18
XINGWANG2_L_00013048-12
1 11703U 26193IH  26075.69965278  .00000000  00000+0  00000-0 0  9994
2 11703  50.0000 352.5000 0000000   0.0000 149.1667 13.30467610    10
XINGWANG2_L_00013048-13
1 11704U 22530YH  26075.69965278  .00000000  00000+0  00000-0 0  9996
2 11704  50.0000 352.5000 0000000   0.0000 159.1667 13.30467610    12
XINGWANG2_L_00013048-14
1 11705U 24178CL  26075.69965278  .00000000  00000+0  00000-0 0  9997
2 11705  50.0000 352.5000 0000000   0.0000 169.1667 13.30467610    14
XINGWANG2_L_00013048-15
1 11706U 24634LE  26075.69965278  .00000000  00000+0  00000-0 0  9995
2 11706  50.0000 352.5000 0000000   0.0000 179.1667 13.30467610    16
XINGWANG2_L_00013048-16
1 11707U 23859BM  26075.69965278  .00000000  00000+0  00000-0 0  9994
2 11707  50.0000 352.5000 0000000   0.0000 189.1667 13.30467610    18
XINGWANG2_L_00013048-17
1 11708U 23789LW  26075.69965278  .00000000  00000+0  00000-0 0  9997
2 11708  50.0000 352.5000 0000000   0.0000 199.1667 13.30467610    10
XINGWANG2_L_00013048-18
1 11709U 22441ML  26075.69965278  .00000000  00000+0  00000-0 0  9992
2 11709  50.0000 352.5000 0000000   0.0000 209.1667 13.30467610    13
XINGWANG2_L_00013048-19
1 11710U 22100HK  26075.69965278  .00000000  00000+0  00000-0 0  9996
2 11710  50.0000 352.5000 0000000   0.0000 219.1667 13.30467610    16
XINGWANG2_L_00013048-20
1 11711U 25401YZ  26075.69965278  .00000000  00000+0  00000-0 0  9994
2 11711  50.0000 352.5000 0000000   0.0000 229.1667 13.30467610    18
XINGWANG2_L_00013048-21
1 11712U 22353WG  26075.69965278  .00000000  00000+0  00000-0 0  9998
2 11712  50.0000 352.5000 0000000   0.0000 239.1667 13.30467610    10
XINGWANG2_L_00013048-22
1 11713U 25532BX  26075.69965278  .00000000  00000+0  00000-0 0  9991
2 11713  50.0000 352.5000 0000000   0.0000 249.1667 13.30467610    12
XINGWANG2_L_00013048-23
1 11714U 22988TA  26075.69965278  .00000000  00000+0  00000-0 0  9994
2 11714  50.0000 352.5000 0000000   0.0000 259.1667 13.30467610    14
XINGWANG2_L_00013048-24
1 11715U 22978KF  26075.69965278  .00000000  00000+0  00000-0 0  9994
2 11715  50.0000 352.5000 0000000   0.0000 269.1667 13.30467610    16
XINGWANG2_L_00013048-25
1 11716U 26925PZ  26075.69965278  .00000000  00000+0  00000-0 0  9991
2 11716  50.0000 352.5000 0000000   0.0000 279.1667 13.30467610    18
XINGWANG2_L_00013048-26
1 11717U 23442FH  26075.69965278  .00000000  00000+0  00000-0 0  9993
2 11717  50.0000 352.5000 0000000   0.0000 289.1667 13.30467610    10
XINGWANG2_L_00013048-27
1 11718U 23919KS  26075.69965278  .00000000  00000+0  00000-0 0  9993
2 11718  50.0000 352.5000 0000000   0.0000 299.1667 13.30467610    12
XINGWANG2_L_00013048-28
1 11719U 22297KU  26075.69965278  .00000000  00000+0  00000-0 0  9992
2 11719  50.0000 352.5000 0000000   0.0000 309.1667 13.30467610    15
XINGWANG2_L_00013048-29
1 11720U 25228YS  26075.69965278  .00000000  00000+0  00000-0 0  9991
2 11720  50.0000 352.5000 0000000   0.0000 319.1667 13.30467610    18
XINGWANG2_L_00013048-30
1 11721U 22438RT  26075.69965278  .00000000  00000+0  00000-0 0  9992
2 11721  50.0000 352.5000 0000000   0.0000 329.1667 13.30467610    10
XINGWANG2_L_00013048-31
1 11722U 23551ED  26075.69965278  .00000000  00000+0  00000-0 0  9990
2 11722  50.0000 352.5000 0000000   0.0000 339.1667 13.30467610    12
XINGWANG2_L_00013048-32
1 11723U 22143TS  26075.69965278  .00000000  00000+0  00000-0 0  9997
2 11723  50.0000 352.5000 0000000   0.0000 349.1667 13.30467610    14
XINGWANG2_L_00013048-33
1 11724U 22603MJ  26075.69965278  .00000000  00000+0  00000-0 0  9999
2 11724  50.0000 352.5000 0000000   0.0000 359.1667 13.30467610    16
XINGWANG2_L_00013048-34
1 11725U 23235LE  26075.69965278  .00000000  00000+0  00000-0 0  9992
2 11725  50.0000 352.5000 0000000   0.0000   9.1667 13.30467610    19
XINGWANG2_L_00013048-35
1 11726U 25779NE  26075.69965278  .00000000  00000+0  00000-0 0  9998
2 11726  50.0000 352.5000 0000000   0.0000  19.1667 13.30467610    11
XINGWANG2_L_00013048-36
1 11727U 26655VA  26075.69965278  .00000000  00000+0  00000-0 0  9993
2 11727  50.0000 352.5000 0000000   0.0000  29.1667 13.30467610    13
